[{"OBJECT_NAME":"ONEWEB-0542","OBJECT_ID":"2022-166E","EPOCH":"2025-12-13T07:33:07.331616","MEAN_MOTION":13.21825393,"ECCENTRICITY":0.00019754,"INCLINATION":87.9218,"RA_OF_ASC_NODE":281.0388,"ARG_OF_PERICENTER":87.4491,"MEAN_ANOMALY":272.6869,"EPHEMERIS_TYPE":0,"CLASSIFICATION_TYPE":"U","NORAD_CAT_ID":54646,"ELEMENT_SET_NO":999,"REV_AT_EPOCH":14698,"BSTAR":0.00031499539,"MEAN_MOTION_DOT":1.43e-6,"MEAN_MOTION_DDOT":0},{"OBJECT_NAME":"ONEWEB-0545","OBJECT_ID":"2022-166F","EPOCH":"2025-12-13T06:43:21.405504","MEAN_MOTION":13.2182722,"ECCENTRICITY":0.0002045,"INCLINATION":87.9216,"RA_OF_ASC_NODE":281.0668,"ARG_OF_PERICENTER":87.6938,"MEAN_ANOMALY":272.443,"EPHEMERIS_TYPE":0,"CLASSIFICATION_TYPE":"U","NORAD_CAT_ID":54647,"ELEMENT_SET_NO":999,"REV_AT_EPOCH":14694,"BSTAR":4.0784613e-5,"MEAN_MOTION_DOT":3.0e-7,"MEAN_MOTION_DDOT":0},{"OBJECT_NAME":"ONEWEB-0580","OBJECT_ID":"2022-166G","EPOCH":"2025-12-13T06:05:26.747520","MEAN_MOTION":13.21825739,"ECCENTRICITY":0.00018251,"INCLINATION":87.9223,"RA_OF_ASC_NODE":281.0707,"ARG_OF_PERICENTER":87.27,"MEAN_ANOMALY":272.8643,"EPHEMERIS_TYPE":0,"CLASSIFICATION_TYPE":"U","NORAD_CAT_ID":54648,"ELEMENT_SET_NO":999,"REV_AT_EPOCH":14698,"BSTAR":0.00019677712,"MEAN_MOTION_DOT":9.4e-7,"MEAN_MOTION_DDOT":0},{"OBJECT_NAME":"ONEWEB-0582","OBJECT_ID":"2022-166H","EPOCH":"2025-12-13T07:07:03.016416","MEAN_MOTION":13.21825752,"ECCENTRICITY":0.00019714,"INCLINATION":87.922,"RA_OF_ASC_NODE":281.0551,"ARG_OF_PERICENTER":91.9152,"MEAN_ANOMALY":268.2208,"EPHEMERIS_TYPE":0,"CLASSIFICATION_TYPE":"U","NORAD_CAT_ID":54649,"ELEMENT_SET_NO":999,"REV_AT_EPOCH":14696,"BSTAR":0.00014348644,"MEAN_MOTION_DOT":7.2e-7,"MEAN_MOTION_DDOT":0},{"OBJECT_NAME":"ONEWEB-0583","OBJECT_ID":"2022-166J","EPOCH":"2025-12-13T07:23:38.258880","MEAN_MOTION":13.21825604,"ECCENTRICITY":0.00019019,"INCLINATION":87.9218,"RA_OF_ASC_NODE":281.0773,"ARG_OF_PERICENTER":79.7263,"MEAN_ANOMALY":280.4085,"EPHEMERIS_TYPE":0,"CLASSIFICATION_TYPE":"U","NORAD_CAT_ID":54650,"ELEMENT_SET_NO":999,"REV_AT_EPOCH":14697,"BSTAR":0.00018101467,"MEAN_MOTION_DOT":8.8e-7,"MEAN_MOTION_DDOT":0},{"OBJECT_NAME":"ONEWEB-0584","OBJECT_ID":"2022-166K","EPOCH":"2025-12-13T06:03:03.573216","MEAN_MOTION":13.21825315,"ECCENTRICITY":0.0001762,"INCLINATION":87.9222,"RA_OF_ASC_NODE":281.075,"ARG_OF_PERICENTER":88.6833,"MEAN_ANOMALY":271.4502,"EPHEMERIS_TYPE":0,"CLASSIFICATION_TYPE":"U","NORAD_CAT_ID":54651,"ELEMENT_SET_NO":999,"REV_AT_EPOCH":14695,"BSTAR":0.00015830527,"MEAN_MOTION_DOT":7.8e-7,"MEAN_MOTION_DDOT":0},{"OBJECT_NAME":"ONEWEB-0585","OBJECT_ID":"2022-166L","EPOCH":"2025-12-13T06:38:36.222432","MEAN_MOTION":13.21824656,"ECCENTRICITY":0.00016894,"INCLINATION":87.9217,"RA_OF_ASC_NODE":281.055,"ARG_OF_PERICENTER":74.4727,"MEAN_ANOMALY":285.6594,"EPHEMERIS_TYPE":0,"CLASSIFICATION_TYPE":"U","NORAD_CAT_ID":54652,"ELEMENT_SET_NO":999,"REV_AT_EPOCH":14696,"BSTAR":0.00011619227,"MEAN_MOTION_DOT":6.1e-7,"MEAN_MOTION_DDOT":0},{"OBJECT_NAME":"ONEWEB-0586","OBJECT_ID":"2022-166M","EPOCH":"2025-12-13T06:57:32.871456","MEAN_MOTION":13.2182769,"ECCENTRICITY":0.00018868,"INCLINATION":87.9214,"RA_OF_ASC_NODE":281.0777,"ARG_OF_PERICENTER":85.2692,"MEAN_ANOMALY":274.8658,"EPHEMERIS_TYPE":0,"CLASSIFICATION_TYPE":"U","NORAD_CAT_ID":54653,"ELEMENT_SET_NO":999,"REV_AT_EPOCH":14696,"BSTAR":-0.0015504591,"MEAN_MOTION_DOT":-6.27e-6,"MEAN_MOTION_DDOT":0},{"OBJECT_NAME":"ONEWEB-0587","OBJECT_ID":"2022-166N","EPOCH":"2025-12-13T07:11:47.615424","MEAN_MOTION":13.21825925,"ECCENTRICITY":0.00016692,"INCLINATION":87.9231,"RA_OF_ASC_NODE":281.0312,"ARG_OF_PERICENTER":64.7454,"MEAN_ANOMALY":295.3853,"EPHEMERIS_TYPE":0,"CLASSIFICATION_TYPE":"U","NORAD_CAT_ID":54654,"ELEMENT_SET_NO":999,"REV_AT_EPOCH":14712,"BSTAR":0.00014109611,"MEAN_MOTION_DOT":7.1e-7,"MEAN_MOTION_DDOT":0},{"OBJECT_NAME":"ONEWEB-0589","OBJECT_ID":"2022-166P","EPOCH":"2025-12-13T06:52:50.057472","MEAN_MOTION":13.21826976,"ECCENTRICITY":0.00019213,"INCLINATION":87.9217,"RA_OF_ASC_NODE":281.0688,"ARG_OF_PERICENTER":104.1371,"MEAN_ANOMALY":255.9977,"EPHEMERIS_TYPE":0,"CLASSIFICATION_TYPE":"U","NORAD_CAT_ID":54655,"ELEMENT_SET_NO":999,"REV_AT_EPOCH":14698,"BSTAR":0.00014881958,"MEAN_MOTION_DOT":7.4e-7,"MEAN_MOTION_DDOT":0},{"OBJECT_NAME":"ONEWEB-0590","OBJECT_ID":"2022-166Q","EPOCH":"2025-12-13T07:28:10.381728","MEAN_MOTION":13.21825428,"ECCENTRICITY":0.00013585,"INCLINATION":87.9224,"RA_OF_ASC_NODE":281.0408,"ARG_OF_PERICENTER":77.7795,"MEAN_ANOMALY":282.3492,"EPHEMERIS_TYPE":0,"CLASSIFICATION_TYPE":"U","NORAD_CAT_ID":54656,"ELEMENT_SET_NO":999,"REV_AT_EPOCH":14697,"BSTAR":0.00031363412,"MEAN_MOTION_DOT":1.43e-6,"MEAN_MOTION_DDOT":0},{"OBJECT_NAME":"ONEWEB-0591","OBJECT_ID":"2022-166R","EPOCH":"2025-12-13T05:55:57.138240","MEAN_MOTION":13.2182481,"ECCENTRICITY":0.00017224,"INCLINATION":87.9222,"RA_OF_ASC_NODE":281.077,"ARG_OF_PERICENTER":79.5294,"MEAN_ANOMALY":280.6034,"EPHEMERIS_TYPE":0,"CLASSIFICATION_TYPE":"U","NORAD_CAT_ID":54657,"ELEMENT_SET_NO":999,"REV_AT_EPOCH":14699,"BSTAR":0.00018444623,"MEAN_MOTION_DOT":8.9e-7,"MEAN_MOTION_DDOT":0},{"OBJECT_NAME":"ONEWEB-0592","OBJECT_ID":"2022-166S","EPOCH":"2025-12-13T06:00:41.845248","MEAN_MOTION":13.21825739,"ECCENTRICITY":0.00017444,"INCLINATION":87.9226,"RA_OF_ASC_NODE":281.0396,"ARG_OF_PERICENTER":77.0672,"MEAN_ANOMALY":283.0657,"EPHEMERIS_TYPE":0,"CLASSIFICATION_TYPE":"U","NORAD_CAT_ID":54658,"ELEMENT_SET_NO":999,"REV_AT_EPOCH":14687,"BSTAR":0.00014710195,"MEAN_MOTION_DOT":7.4e-7,"MEAN_MOTION_DDOT":0},{"OBJECT_NAME":"ONEWEB-0593","OBJECT_ID":"2022-166T","EPOCH":"2025-12-13T06:33:52.359552","MEAN_MOTION":13.21827009,"ECCENTRICITY":0.00018944,"INCLINATION":87.9219,"RA_OF_ASC_NODE":281.0616,"ARG_OF_PERICENTER":78.7471,"MEAN_ANOMALY":281.3876,"EPHEMERIS_TYPE":0,"CLASSIFICATION_TYPE":"U","NORAD_CAT_ID":54659,"ELEMENT_SET_NO":999,"REV_AT_EPOCH":14698,"BSTAR":0.00022457061,"MEAN_MOTION_DOT":1.06e-6,"MEAN_MOTION_DDOT":0},{"OBJECT_NAME":"ONEWEB-0594","OBJECT_ID":"2022-166U","EPOCH":"2025-12-13T07:02:18.388896","MEAN_MOTION":13.21825086,"ECCENTRICITY":0.00018375,"INCLINATION":87.9219,"RA_OF_ASC_NODE":281.0756,"ARG_OF_PERICENTER":76.0251,"MEAN_ANOMALY":284.1088,"EPHEMERIS_TYPE":0,"CLASSIFICATION_TYPE":"U","NORAD_CAT_ID":54660,"ELEMENT_SET_NO":999,"REV_AT_EPOCH":14700,"BSTAR":-6.4278546e-5,"MEAN_MOTION_DOT":-1.4e-7,"MEAN_MOTION_DDOT":0},{"OBJECT_NAME":"ONEWEB-0595","OBJECT_ID":"2022-166V","EPOCH":"2025-12-13T06:29:07.299168","MEAN_MOTION":13.21824442,"ECCENTRICITY":0.00016816,"INCLINATION":87.9217,"RA_OF_ASC_NODE":281.0533,"ARG_OF_PERICENTER":71.1622,"MEAN_ANOMALY":288.9694,"EPHEMERIS_TYPE":0,"CLASSIFICATION_TYPE":"U","NORAD_CAT_ID":54661,"ELEMENT_SET_NO":999,"REV_AT_EPOCH":14697,"BSTAR":0.00010855872,"MEAN_MOTION_DOT":5.8e-7,"MEAN_MOTION_DDOT":0},{"OBJECT_NAME":"ONEWEB-0596","OBJECT_ID":"2022-166W","EPOCH":"2025-12-13T07:40:12.954432","MEAN_MOTION":13.21824031,"ECCENTRICITY":0.00017082,"INCLINATION":87.9219,"RA_OF_ASC_NODE":281.0602,"ARG_OF_PERICENTER":76.6511,"MEAN_ANOMALY":283.4813,"EPHEMERIS_TYPE":0,"CLASSIFICATION_TYPE":"U","NORAD_CAT_ID":54662,"ELEMENT_SET_NO":999,"REV_AT_EPOCH":14698,"BSTAR":0.00027001089,"MEAN_MOTION_DOT":1.25e-6,"MEAN_MOTION_DDOT":0}]
