ONEWEB-0542             
1 54646U 22166E   25347.31466819  .00000143  00000+0  31500-3 0  9990
2 54646  87.9218 281.0388 0001975  87.4491 272.6869 13.21825393146982
ONEWEB-0545             
1 54647U 22166F   25347.28010886  .00000030  00000+0  40785-4 0  9997
2 54647  87.9216 281.0668 0002045  87.6938 272.4430 13.21827220146948
ONEWEB-0580             
1 54648U 22166G   25347.25378180  .00000094  00000+0  19678-3 0  9995
2 54648  87.9223 281.0707 0001825  87.2700 272.8643 13.21825739146986
ONEWEB-0582             
1 54649U 22166H   25347.29656269  .00000072  00000+0  14349-3 0  9993
2 54649  87.9220 281.0551 0001971  91.9152 268.2208 13.21825752146965
ONEWEB-0583             
1 54650U 22166J   25347.30808170  .00000088  00000+0  18101-3 0  9994
2 54650  87.9218 281.0773 0001901  79.7263 280.4085 13.21825604146976
ONEWEB-0584             
1 54651U 22166K   25347.25212469  .00000078  00000+0  15831-3 0  9995
2 54651  87.9222 281.0750 0001762  88.6833 271.4502 13.21825315146955
ONEWEB-0585             
1 54652U 22166L   25347.27680813  .00000061  00000+0  11619-3 0  9992
2 54652  87.9217 281.0550 0001689  74.4727 285.6594 13.21824656146967
ONEWEB-0586             
1 54653U 22166M   25347.28996379 -.00000627  00000+0 -15505-2 0  9998
2 54653  87.9214 281.0777 0001886  85.2692 274.8658 13.21827690146968
ONEWEB-0587             
1 54654U 22166N   25347.29985666  .00000071  00000+0  14110-3 0  9990
2 54654  87.9231 281.0312 0001669  64.7454 295.3853 13.21825925147123
ONEWEB-0589             
1 54655U 22166P   25347.28669048  .00000074  00000+0  14882-3 0  9992
2 54655  87.9217 281.0688 0001921 104.1371 255.9977 13.21826976146981
ONEWEB-0590             
1 54656U 22166Q   25347.31123127  .00000143  00000+0  31363-3 0  9990
2 54656  87.9224 281.0408 0001358  77.7795 282.3492 13.21825428146975
ONEWEB-0591             
1 54657U 22166R   25347.24718910  .00000089  00000+0  18445-3 0  9998
2 54657  87.9222 281.0770 0001722  79.5294 280.6034 13.21824810146994
ONEWEB-0592             
1 54658U 22166S   25347.25048432  .00000074  00000+0  14710-3 0  9990
2 54658  87.9226 281.0396 0001744  77.0672 283.0657 13.21825739146876
ONEWEB-0593             
1 54659U 22166T   25347.27352268  .00000106  00000+0  22457-3 0  9991
2 54659  87.9219 281.0616 0001894  78.7471 281.3876 13.21827009146983
ONEWEB-0594             
1 54660U 22166U   25347.29326839 -.00000014  00000+0 -64279-4 0  9999
2 54660  87.9219 281.0756 0001837  76.0251 284.1088 13.21825086147007
ONEWEB-0595             
1 54661U 22166V   25347.27022337  .00000058  00000+0  10856-3 0  9991
2 54661  87.9217 281.0533 0001681  71.1622 288.9694 13.21824442146979
ONEWEB-0596             
1 54662U 22166W   25347.31959438  .00000125  00000+0  27001-3 0  9993
2 54662  87.9219 281.0602 0001708  76.6511 283.4813 13.21824031146984
